{
  "norad_id": 68886,
  "name": "KUIPER-00505",
  "history": [
    {
      "epoch": "2026-05-02T10:00:03.000096Z",
      "apogee_km": 456.5258466203186,
      "perigee_km": 450.2708928357961,
      "latitude_deg": 21.919115614270048,
      "longitude_deg": -104.95574454933829,
      "height_km": 451.7468300218634,
      "semi_major_axis_km": 6831.535369728057,
      "eccentricity": 0.0004578,
      "inclination_deg": 51.8801,
      "raan_deg": 103.6913,
      "arg_perigee_deg": 105.2782,
      "mean_anomaly_deg": 46.4316,
      "mean_motion_rev_day": 15.37535954
    }
  ]
}