{"fetched_at":"2026-05-03T06:27:58Z","count":17151,"tles":[{"name":"KUIPER-00505","line1":"1 68886U 26095Y   26122.41670139  .00069329  00000+0  18467-2 0  9998","line2":"2 68886  51.8801 103.6913 0004578 105.2782  46.4316 15.37535954  1465","category":"Other"}]}